NORAD_CAT_ID,OBJECT_NAME,OBJECT_TYPE,EPOCH,MEAN_MOTION,ECCENTRICITY,INCLINATION,RA_OF_ASC_NODE,ARG_OF_PERICENTER,MEAN_ANOMALY,BSTAR,MEAN_MOTION_DOT,MEAN_MOTION_DDOT,TLE_LINE0,TLE_LINE1,TLE_LINE2,SEMIMAJOR_AXIS,PERIOD,APOGEE,PERIGEE,DECAYED
53715.0,STARLINK-4686,PAYLOAD,2024-01-22 11:15:07,15.08840296,0.0001551,53.2167,142.921,86.2061,273.9108,5.6504e-05,6.11e-06,0.0,0 STARLINK-4686,1 53715U 22107R   24022.46883116  .00000611  00000-0  56504-4 0  9992,2 53715  53.2167 142.9210 0001551  86.2061 273.9108 15.08840296 76625,6917.879,95.438,540.817,538.672,0.0
53715.0,STARLINK-4686,PAYLOAD,2024-01-22 14:25:53,15.08843936,0.0001581,53.2177,142.3257,92.2486,267.8688,2.1535e-05,5.5e-07,0.0,0 STARLINK-4686,1 53715U 22107R   24022.60130942  .00000055  00000-0  21535-4 0  9998,2 53715  53.2177 142.3257 0001581  92.2486 267.8688 15.08843936 77105,6917.868,95.437,540.827,538.64,0.0
53715.0,STARLINK-4686,PAYLOAD,2024-01-23 14:16:39,15.08851718,0.0001553,53.2169,137.8643,90.1717,269.9453,5.0702e-05,5.19e-06,0.0,0 STARLINK-4686,1 53715U 22107R   24023.59490135  .00000519  00000-0  50702-4 0  9993,2 53715  53.2169 137.8643 0001553  90.1717 269.9453 15.08851718 76791,6917.845,95.437,540.784,538.635,0.0
53715.0,STARLINK-4686,PAYLOAD,2024-01-24 10:56:41,15.08834409,0.0001604,53.2178,133.9987,117.1115,243.0041,-4.5009e-05,-1.004e-05,0.0,0 STARLINK-4686,1 53715U 22107R   24024.45603541 -.00001004  00000-0 -45009-4 0  9992,2 53715  53.2178 133.9987 0001604 117.1115 243.0041 15.08834409 76927,6917.897,95.438,540.872,538.653,0.0
53715.0,STARLINK-4686,PAYLOAD,2024-01-24 14:07:27,15.08834845,0.0001493,53.2177,133.4061,97.3216,262.7946,2.7337e-07,-2.84e-06,0.0,0 STARLINK-4686,1 53715U 22107R   24024.58851593 -.00000284  00000-0  27337-6 0  9992,2 53715  53.2177 133.4061 0001493  97.3216 262.7946 15.08834845 77401,6917.896,95.438,540.794,538.728,0.0
53715.0,STARLINK-4686,PAYLOAD,2024-01-25 12:22:52,15.08837782,0.0001638,53.2176,129.2428,101.6618,258.4558,-6.3702e-05,-1.302e-05,0.0,0 STARLINK-4686,1 53715U 22107R   24025.51588038 -.00001302  00000-0 -63702-4 0  9994,2 53715  53.2176 129.2428 0001638 101.6618 258.4558 15.08837782 77084,6917.887,95.438,540.885,538.619,0.0
53715.0,STARLINK-4686,PAYLOAD,2024-01-26 12:13:38,15.08843175,0.0001715,53.2176,124.78,104.7932,255.325,0.00017625,2.518e-05,0.0,0 STARLINK-4686,1 53715U 22107R   24026.50947236  .00002518  00000-0  17625-3 0  9993,2 53715  53.2176 124.7800 0001715 104.7932 255.3250 15.08843175 77232,6917.871,95.437,540.922,538.549,0.0
53715.0,STARLINK-4686,PAYLOAD,2024-01-26 13:49:01,15.08818581,0.0001719,53.2181,124.4832,84.3986,275.7202,0.00060096,9.284e-05,0.0,0 STARLINK-4686,1 53715U 22107R   24026.57571653  .00009284  00000-0  60096-3 0  9993,2 53715  53.2181 124.4832 0001719  84.3986 275.7202 15.08818581 77704,6917.946,95.439,541.0,538.622,0.0
53715.0,STARLINK-4686,PAYLOAD,2024-01-27 13:39:49,15.08842197,0.0001728,53.2177,120.0226,69.7241,290.3937,8.1165e-05,1.004e-05,0.0,0 STARLINK-4686,1 53715U 22107R   24027.56932004  .00001004  00000-0  81165-4 0  9997,2 53715  53.2177 120.0226 0001728  69.7241 290.3937 15.08842197 77853,6917.874,95.437,540.934,538.543,0.0
53715.0,STARLINK-4686,PAYLOAD,2024-01-28 05:33:40,15.08842613,0.0001736,53.2169,117.0539,71.547,288.571,-3.2437e-05,-8.04e-06,0.0,0 STARLINK-4686,1 53715U 22107R   24028.23172336 -.00000804  00000-0 -32437-4 0  9993,2 53715  53.2169 117.0539 0001736  71.5470 288.5710 15.08842613 77492,6917.872,95.437,540.938,538.536,0.0
53715.0,STARLINK-4686,PAYLOAD,2024-01-28 13:30:36,15.08843875,0.000171,53.2176,115.5632,70.6612,289.4565,-7.4408e-05,-1.472e-05,0.0,0 STARLINK-4686,1 53715U 22107R   24028.56292325 -.00001472  00000-0 -74408-4 0  9996,2 53715  53.2176 115.5632 0001710  70.6612 289.4565 15.08843875 78004,6917.869,95.437,540.917,538.551,0.0
53715.0,STARLINK-4686,PAYLOAD,2024-01-28 15:05:59,15.08844961,0.0001883,53.2176,115.2643,62.864,297.2544,-2.0693e-05,-6.18e-06,0.0,0 STARLINK-4686,1 53715U 22107R   24028.62916172 -.00000618  00000-0 -20693-4 0  9994,2 53715  53.2176 115.2643 0001883  62.8640 297.2544 15.08844961 78010,6917.865,95.437,541.033,538.428,0.0
53715.0,STARLINK-4686,PAYLOAD,2024-01-29 11:45:59,15.08849872,0.0001651,53.2172,111.3997,73.0885,287.0288,0.00012151,1.647e-05,0.0,0 STARLINK-4686,1 53715U 22107R   24029.49027397  .00001647  00000-0  12151-3 0  9992,2 53715  53.2172 111.3997 0001651  73.0885 287.0288 15.08849872 77683,6917.85,95.437,540.857,538.573,0.0
53715.0,STARLINK-4686,PAYLOAD,2024-01-30 11:36:47,15.08832563,0.0001641,53.2169,106.9421,78.541,281.5766,7.1319e-05,8.47e-06,0.0,0 STARLINK-4686,1 53715U 22107R   24030.48388574  .00000847  00000-0  71319-4 0  9993,2 53715  53.2169 106.9421 0001641  78.5410 281.5766 15.08832563 77830,6917.903,95.438,540.903,538.633,0.0
53715.0,STARLINK-4686,PAYLOAD,2024-01-30 13:12:10,15.08839707,0.0001457,53.217,106.6397,90.6813,269.4346,3.0176e-05,1.92e-06,0.0,0 STARLINK-4686,1 53715U 22107R   24030.55012176  .00000192  00000-0  30176-4 0  9992,2 53715  53.2170 106.6397 0001457  90.6813 269.4346 15.08839707 78307,6917.881,95.438,540.754,538.738,0.0
53715.0,STARLINK-4686,PAYLOAD,2024-01-30 14:47:33,15.08840498,0.0001437,53.217,106.3414,93.5467,266.569,2.8404e-05,1.64e-06,0.0,0 STARLINK-4686,1 53715U 22107R   24030.61636097  .00000164  00000-0  28404-4 0  9993,2 53715  53.2170 106.3414 0001437  93.5467 266.5690 15.08840498 77857,6917.879,95.438,540.738,538.75,0.0
53715.0,STARLINK-4686,PAYLOAD,2024-01-31 11:27:34,15.08848077,0.0001598,53.2173,102.4744,103.7958,256.3212,-4.0288e-05,-9.29e-06,0.0,0 STARLINK-4686,1 53715U 22107R   24031.47747754 -.00000929  00000-0 -40288-4 0  9996,2 53715  53.2173 102.4744 0001598 103.7958 256.3212 15.08848077 78444,6917.856,95.437,540.826,538.615,0.0
53715.0,STARLINK-4686,PAYLOAD,2024-01-31 14:38:20,15.08848037,0.0001678,53.2172,101.8796,104.1865,255.9313,-4.4201e-05,-9.92e-06,0.0,0 STARLINK-4686,1 53715U 22107R   24031.60995710 -.00000992  00000-0 -44201-4 0  9997,2 53715  53.2172 101.8796 0001678 104.1865 255.9313 15.08848037 78469,6917.856,95.437,540.882,538.56,0.0
53715.0,STARLINK-4686,PAYLOAD,2024-02-01 09:42:58,15.08833613,0.0001662,53.2174,98.3105,108.0403,252.077,4.9484e-05,4.99e-06,0.0,0 STARLINK-4686,1 53715U 22107R   24032.40484393  .00000499  00000-0  49484-4 0  9994,2 53715  53.2174  98.3105 0001662 108.0403 252.0770 15.08833613 78121,6917.9,95.438,540.915,538.615,0.0
53715.0,STARLINK-4686,PAYLOAD,2024-02-01 14:29:07,15.08834478,0.0001661,53.2173,97.4185,107.9094,252.2079,5.3851e-05,5.69e-06,0.0,0 STARLINK-4686,1 53715U 22107R   24032.60356412  .00000569  00000-0  53851-4 0  9997,2 53715  53.2173  97.4185 0001661 107.9094 252.2079 15.08834478 78619,6917.897,95.438,540.911,538.613,0.0
53715.0,STARLINK-4686,PAYLOAD,2024-02-02 09:33:45,15.08840056,0.0001736,53.2171,93.8503,116.7613,243.3557,3.8632e-05,3.27e-06,0.0,0 STARLINK-4686,1 53715U 22107R   24033.39844141  .00000327  00000-0  38632-4 0  9997,2 53715  53.2171  93.8503 0001736 116.7613 243.3557 15.08840056 78733,6917.88,95.438,540.946,538.544,0.0
53715.0,STARLINK-4686,PAYLOAD,2024-02-03 10:59:56,15.08837496,0.0001299,53.2164,89.0933,83.7146,276.3994,1.9017e-05,1.5e-07,0.0,0 STARLINK-4686,1 53715U 22107R   24034.45828762  .00000015  00000-0  19017-4 0  9996,2 53715  53.2164  89.0933 0001299  83.7146 276.3994 15.08837496 78439,6917.888,95.438,540.652,538.854,0.0
53715.0,STARLINK-4686,PAYLOAD,2024-02-03 12:35:19,15.08837959,0.0001305,53.2163,88.7958,83.5476,276.5665,2.296e-05,7.8e-07,0.0,0 STARLINK-4686,1 53715U 22107R   24034.52452729  .00000078  00000-0  22960-4 0  9990,2 53715  53.2163  88.7958 0001305  83.5476 276.5665 15.08837959 78906,6917.887,95.438,540.654,538.849,0.0
53715.0,STARLINK-4686,PAYLOAD,2024-02-03 14:10:42,15.08837741,0.0001308,53.2164,88.4991,81.3314,278.7826,1.5874e-05,-3.5e-07,0.0,0 STARLINK-4686,1 53715U 22107R   24034.59076787 -.00000035  00000-0  15874-4 0  9993,2 53715  53.2164  88.4991 0001308  81.3314 278.7826 15.08837741 78914,6917.887,95.438,540.657,538.847,0.0
53715.0,STARLINK-4686,PAYLOAD,2024-02-04 10:50:42,15.08845957,0.0001418,53.2167,84.6346,82.1535,277.9618,0.00012685,1.732e-05,0.0,0 STARLINK-4686,1 53715U 22107R   24035.45188019  .00001732  00000-0  12685-3 0  9991,2 53715  53.2167  84.6346 0001418  82.1535 277.9618 15.08845957 78586,6917.862,95.437,540.708,538.746,0.0
53715.0,STARLINK-4686,PAYLOAD,2024-02-05 09:06:06,15.08838844,0.0001316,53.2159,80.4719,93.3276,266.7867,2.8207e-05,1.61e-06,0.0,0 STARLINK-4686,1 53715U 22107R   24036.37924695  .00000161  00000-0  28207-4 0  9994,2 53715  53.2159  80.4719 0001316  93.3276 266.7867 15.08838844 78723,6917.884,95.438,540.659,538.839,0.0
53715.0,STARLINK-4686,PAYLOAD,2024-02-05 12:16:52,15.0884675,0.000142,53.2174,79.8762,91.8221,268.2934,9.5234e-05,1.228e-05,0.0,0 STARLINK-4686,1 53715U 22107R   24036.51171996  .00001228  00000-0  95234-4 0  9997,2 53715  53.2174  79.8762 0001420  91.8221 268.2934 15.08846750 79200,6917.86,95.437,540.707,538.742,0.0
53715.0,STARLINK-4686,PAYLOAD,2024-02-06 08:56:54,15.08843646,0.0001785,53.2188,76.0067,100.8521,259.2672,-6.241e-05,-1.281e-05,0.0,0 STARLINK-4686,1 53715U 22107R   24037.37284733 -.00001281  00000-0 -62410-4 0  9997,2 53715  53.2188  76.0067 0001785 100.8521 259.2672 15.08843646 78872,6917.869,95.437,540.969,538.499,0.0
53715.0,STARLINK-4686,PAYLOAD,2024-02-06 12:07:40,15.08845359,0.0001817,53.2186,75.4095,114.5507,245.5674,-5.9624e-05,-1.237e-05,0.0,0 STARLINK-4686,1 53715U 22107R   24037.50532460 -.00001237  00000-0 -59624-4 0  9999,2 53715  53.2186  75.4095 0001817 114.5507 245.5674 15.08845359 79353,6917.864,95.437,540.986,538.472,0.0
53715.0,STARLINK-4686,PAYLOAD,2024-02-07 11:58:27,15.08805692,0.0002133,53.2191,70.9503,117.1371,242.9838,0.00055371,8.527e-05,0.0,0 STARLINK-4686,1 53715U 22107R   24038.49892966  .00008527  00000-0  55371-3 0  9999,2 53715  53.2191  70.9503 0002133 117.1371 242.9838 15.08805692 79048,6917.985,95.44,541.326,538.375,0.0
